GLOBALSTAR M024         
1 25883U 99043A   25333.13629382 -.00000126  00000+0 -21797-2 0  9999
2 25883  52.0051   8.4382 0001236  11.0058 359.9247 11.10168325133186
GLOBALSTAR M027         
1 25884U 99043B   25333.04752780 -.00000013  00000+0  19093-2 0  9999
2 25884  52.0209  91.2890 0020850 256.0015 103.8460 11.04373070159452
GLOBALSTAR M054         
1 25885U 99043C   25333.01451963 -.00000053  00000+0  46490-3 0  9992
2 25885  52.0103 191.0039 0006023  95.7317  50.2366 11.39224176137837
GLOBALSTAR M053         
1 25886U 99043D   25332.49451598 -.00000061  00000+0  21513-3 0  9996
2 25886  51.9940 148.4595 0003594  24.4280   3.2692 11.27668815137981
GLOBALSTAR M058         
1 25907U 99049A   25333.16882624 -.00000015  00000+0  92982-3 0  9996
2 25907  51.9970  28.6272 0001895 217.5627 142.5075 11.93206198561237
GLOBALSTAR M050         
1 25908U 99049B   25333.10358617 -.00000033  00000+0  62350-3 0  9997
2 25908  52.0017  24.1564 0008824   2.1782  15.2569 12.07460419168114
GLOBALSTAR M033         
1 25909U 99049C   25333.15150302 -.00000053  00000+0  37289-3 0  9999
2 25909  51.9908 244.4636 0013233 244.6721 115.2756 12.20293523555883
GLOBALSTAR M055         
1 25910U 99049D   25333.13370309 -.00000065  00000+0  25484-3 0  9997
2 25910  52.0018 247.2291 0007516 108.4950 251.6719 12.29436872188572
